{"type": "FeatureCollection", "features": [ {"type": "Feature", "properties": {"norad_id": 36203, "name": "FENGYUN 1C DEB", "group": "fengyun-1c-debris", "lat": 8.649410328660739, "lon": -57.986754422777146, "alt_km": 649.3798853463468, "timestamp": "2025-12-24T03:53:29.935438+00:00", "meta": {"OBJECT_NAME": "FENGYUN 1C DEB", "OBJECT_ID": "1999-025DUC", "EPOCH": "2025-12-16T02:34:12.047232", "MEAN_MOTION": 14.78467362, "ECCENTRICITY": 0.00836343, "INCLINATION": 99.0958, "RA_OF_ASC_NODE": 294.3166, "ARG_OF_PERICENTER": 138.0502, "MEAN_ANOMALY": 222.7152, "EPHEMERIS_TYPE": 0, "CLASSIFICATION_TYPE": "U", "NORAD_CAT_ID": 36203, "ELEMENT_SET_NO": 999, "REV_AT_EPOCH": 63479, "BSTAR": 0.00071031238, "MEAN_MOTION_DOT": 5.428e-05, "MEAN_MOTION_DDOT": 0}, "tle": {"line1": "1 36203U 99025DUC 25350.10708388  .00005428  00000+0  71031-3 0  9992", "line2": "2 36203  99.0958 294.3166 0083634 138.0502 222.7152 14.78467362634798"}}, "geometry": {"type": "Point", "coordinates": [-57.986754422777146, 8.649410328660739]}}, {"type": "Feature", "properties": {"norad_id": 36204, "name": "FENGYUN 1C DEB", "group": "fengyun-1c-debris", "lat": 39.132584078311055, "lon": -76.25089840187056, "alt_km": 759.1487282955713, "timestamp": "2025-12-24T03:53:29.935448+00:00", "meta": {"OBJECT_NAME": "FENGYUN 1C DEB", "OBJECT_ID": "1999-025DUD", "EPOCH": "2025-12-20T00:29:04.036704", "MEAN_MOTION": 14.34620289, "ECCENTRICITY": 0.00199406, "INCLINATION": 99.2912, "RA_OF_ASC_NODE": 91.6441, "ARG_OF_PERICENTER": 143.0845, "MEAN_ANOMALY": 217.1715, "EPHEMERIS_TYPE": 0, "CLASSIFICATION_TYPE": "U", "NORAD_CAT_ID": 36204, "ELEMENT_SET_NO": 999, "REV_AT_EPOCH": 94532, "BSTAR": 0.00076658222, "MEAN_MOTION_DOT": 2.122e-05, "MEAN_MOTION_DDOT": 0}, "tle": {"line1": "1 36204U 99025DUD 25354.02018561  .00002122  00000+0  76658-3 0  9993", "line2": "2 36204  99.2912  91.6441 0019940 143.0845 217.1715 14.34620289945328"}}, "geometry": {"type": "Point", "coordinates": [-76.25089840187056, 39.132584078311055]}}, {"type": "Feature", "properties": {"norad_id": 36206, "name": "FENGYUN 1C DEB", "group": "fengyun-1c-debris", "lat": -19.65038685962288, "lon": 23.919859875124846, "alt_km": 803.3550620282258, "timestamp": "2025-12-24T03:53:29.935458+00:00", "meta": {"OBJECT_NAME": "FENGYUN 1C DEB", "OBJECT_ID": "1999-025DUF", "EPOCH": "2025-12-16T08:29:03.735744", "MEAN_MOTION": 14.21592437, "ECCENTRICITY": 0.00302163, "INCLINATION": 98.4786, "RA_OF_ASC_NODE": 13.3653, "ARG_OF_PERICENTER": 8.6843, "MEAN_ANOMALY": 351.4852, "EPHEMERIS_TYPE": 0, "CLASSIFICATION_TYPE": "U", "NORAD_CAT_ID": 36206, "ELEMENT_SET_NO": 999, "REV_AT_EPOCH": 64472, "BSTAR": 0.00060166506, "MEAN_MOTION_DOT": 1.283e-05, "MEAN_MOTION_DDOT": 0}, "tle": {"line1": "1 36206U 99025DUF 25350.35351546  .00001283  00000+0  60167-3 0  9995", "line2": "2 36206  98.4786  13.3653 0030216   8.6843 351.4852 14.21592437644722"}}, "geometry": {"type": "Point", "coordinates": [23.919859875124846, -19.65038685962288]}}, {"type": "Feature", "properties": {"norad_id": 36211, "name": "FENGYUN 1C DEB", "group": "fengyun-1c-debris", "lat": -54.998664795058595, "lon": 3.344809851047637, "alt_km": 869.3480416191605, "timestamp": "2025-12-24T03:53:29.935471+00:00", "meta": {"OBJECT_NAME": "FENGYUN 1C DEB", "OBJECT_ID": "1999-025DUL", "EPOCH": "2025-12-20T17:38:46.714560", "MEAN_MOTION": 14.26014194, "ECCENTRICITY": 0.02668837, "INCLINATION": 98.5045, "RA_OF_ASC_NODE": 347.6761, "ARG_OF_PERICENTER": 205.353, "MEAN_ANOMALY": 153.4356, "EPHEMERIS_TYPE": 0, "CLASSIFICATION_TYPE": "U", "NORAD_CAT_ID": 36211, "ELEMENT_SET_NO": 999, "REV_AT_EPOCH": 94483, "BSTAR": 0.00026610652, "MEAN_MOTION_DOT": 8.73e-06, "MEAN_MOTION_DDOT": 0}, "tle": {"line1": "1 36211U 99025DUL 25354.73526290  .00000873  00000+0  26611-3 0  9997", "line2": "2 36211  98.5045 347.6761 0266883 205.3530 153.4356 14.26014194944838"}}, "geometry": {"type": "Point", "coordinates": [3.344809851047637, -54.998664795058595]}}, {"type": "Feature", "properties": {"norad_id": 36216, "name": "FENGYUN 1C DEB", "group": "fengyun-1c-debris", "lat": 18.99996317941565, "lon": 15.047403304586888, "alt_km": 802.7684852795373, "timestamp": "2025-12-24T03:53:29.935482+00:00", "meta": {"OBJECT_NAME": "FENGYUN 1C DEB", "OBJECT_ID": "1999-025DUR", "EPOCH": "2025-12-20T06:43:05.664288", "MEAN_MOTION": 14.18868719, "ECCENTRICITY": 0.00445798, "INCLINATION": 98.6082, "RA_OF_ASC_NODE": 14.268, "ARG_OF_PERICENTER": 356.1028, "MEAN_ANOMALY": 3.9794, "EPHEMERIS_TYPE": 0, "CLASSIFICATION_TYPE": "U", "NORAD_CAT_ID": 36216, "ELEMENT_SET_NO": 999, "REV_AT_EPOCH": 64479, "BSTAR": 0.00028691097, "MEAN_MOTION_DOT": 5.6e-06, "MEAN_MOTION_DDOT": 0}, "tle": {"line1": "1 36216U 99025DUR 25354.27992667  .00000560  00000+0  28691-3 0  9999", "line2": "2 36216  98.6082  14.2680 0044579 356.1028   3.9794 14.18868719644793"}}, "geometry": {"type": "Point", "coordinates": [15.047403304586888, 18.99996317941565]}}, {"type": "Feature", "properties": {"norad_id": 36218, "name": "FENGYUN 1C DEB", "group": "fengyun-1c-debris", "lat": -80.00328515003845, "lon": -44.59811654856559, "alt_km": 614.0115449176674, "timestamp": "2025-12-24T03:53:29.935492+00:00", "meta": {"OBJECT_NAME": "FENGYUN 1C DEB", "OBJECT_ID": "1999-025DUT", "EPOCH": "2025-12-20T18:41:49.976160", "MEAN_MOTION": 14.71089731, "ECCENTRICITY": 0.00724973, "INCLINATION": 99.0751, "RA_OF_ASC_NODE": 196.6991, "ARG_OF_PERICENTER": 270.7266, "MEAN_ANOMALY": 88.5631, "EPHEMERIS_TYPE": 0, "CLASSIFICATION_TYPE": "U", "NORAD_CAT_ID": 36218, "ELEMENT_SET_NO": 999, "REV_AT_EPOCH": 59261, "BSTAR": 0.00093548093, "MEAN_MOTION_DOT": 5.929e-05, "MEAN_MOTION_DDOT": 0}, "tle": {"line1": "1 36218U 99025DUT 25354.77905065  .00005929  00000+0  93548-3 0  9999", "line2": "2 36218  99.0751 196.6991 0072497 270.7266  88.5631 14.71089731592618"}}, "geometry": {"type": "Point", "coordinates": [-44.59811654856559, -80.00328515003845]}}, {"type": "Feature", "properties": {"norad_id": 36224, "name": "FENGYUN 1C DEB", "group": "fengyun-1c-debris", "lat": 5.435596893648027, "lon": 44.433174538562675, "alt_km": 794.4276054459733, "timestamp": "2025-12-24T03:53:29.935504+00:00", "meta": {"OBJECT_NAME": "FENGYUN 1C DEB", "OBJECT_ID": "1999-025DUZ", "EPOCH": "2025-12-21T09:34:36.458112", "MEAN_MOTION": 14.12766367, "ECCENTRICITY": 0.01141721, "INCLINATION": 98.7788, "RA_OF_ASC_NODE": 42.567, "ARG_OF_PERICENTER": 327.3018, "MEAN_ANOMALY": 32.1122, "EPHEMERIS_TYPE": 0, "CLASSIFICATION_TYPE": "U", "NORAD_CAT_ID": 36224, "ELEMENT_SET_NO": 999, "REV_AT_EPOCH": 64554, "BSTAR": 0.00010323044, "MEAN_MOTION_DOT": 1.6e-06, "MEAN_MOTION_DDOT": 0}, "tle": {"line1": "1 36224U 99025DUZ 25355.39903308  .00000160  00000+0  10323-3 0  9995", "line2": "2 36224  98.7788  42.5670 0114172 327.3018  32.1122 14.12766367645548"}}, "geometry": {"type": "Point", "coordinates": [44.433174538562675, 5.435596893648027]}}, {"type": "Feature", "properties": {"norad_id": 36225, "name": "FENGYUN 1C DEB", "group": "fengyun-1c-debris", "lat": 13.8983393245571, "lon": 119.00443369773403, "alt_km": 561.572596650688, "timestamp": "2025-12-24T03:53:29.935514+00:00", "meta": {"OBJECT_NAME": "FENGYUN 1C DEB", "OBJECT_ID": "1999-025DVA", "EPOCH": "2025-12-22T02:25:20.317440", "MEAN_MOTION": 15.0669254, "ECCENTRICITY": 0.00435524, "INCLINATION": 98.8181, "RA_OF_ASC_NODE": 118.8479, "ARG_OF_PERICENTER": 261.4254, "MEAN_ANOMALY": 98.2034, "EPHEMERIS_TYPE": 0, "CLASSIFICATION_TYPE": "U", "NORAD_CAT_ID": 36225, "ELEMENT_SET_NO": 999, "REV_AT_EPOCH": 66913, "BSTAR": 0.0028167564, "MEAN_MOTION_DOT": 0.00042885, "MEAN_MOTION_DDOT": 0}, "tle": {"line1": "1 36225U 99025DVA 25356.10092960  .00042885  00000+0  28168-2 0  9994", "line2": "2 36225  98.8181 118.8479 0043552 261.4254  98.2034 15.06692540669135"}}, "geometry": {"type": "Point", "coordinates": [119.00443369773403, 13.8983393245571]}}, {"type": "Feature", "properties": {"norad_id": 36226, "name": "FENGYUN 1C DEB", "group": "fengyun-1c-debris", "lat": 57.372414436926086, "lon": 26.49782522049541, "alt_km": 829.0335697364117, "timestamp": "2025-12-24T03:53:29.935524+00:00", "meta": {"OBJECT_NAME": "FENGYUN 1C DEB", "OBJECT_ID": "1999-025DVB", "EPOCH": "2025-12-16T21:56:50.014464", "MEAN_MOTION": 14.10310742, "ECCENTRICITY": 0.0095148, "INCLINATION": 98.6088, "RA_OF_ASC_NODE": 33.2455, "ARG_OF_PERICENTER": 8.6109, "MEAN_ANOMALY": 351.6668, "EPHEMERIS_TYPE": 0, "CLASSIFICATION_TYPE": "U", "NORAD_CAT_ID": 36226, "ELEMENT_SET_NO": 999, "REV_AT_EPOCH": 63821, "BSTAR": 0.0011977074, "MEAN_MOTION_DOT": 2.175e-05, "MEAN_MOTION_DDOT": 0}, "tle": {"line1": "1 36226U 99025DVB 25350.91446776  .00002175  00000+0  11977-2 0  9994", "line2": "2 36226  98.6088  33.2455 0095148   8.6109 351.6668 14.10310742638211"}}, "geometry": {"type": "Point", "coordinates": [26.49782522049541, 57.372414436926086]}}, {"type": "Feature", "properties": {"norad_id": 36229, "name": "FENGYUN 1C DEB", "group": "fengyun-1c-debris", "lat": 57.3555020280598, "lon": -157.25306187456854, "alt_km": 800.3183321557563, "timestamp": "2025-12-24T03:53:29.935535+00:00", "meta": {"OBJECT_NAME": "FENGYUN 1C DEB", "OBJECT_ID": "1999-025DVE", "EPOCH": "2025-12-22T20:54:01.687104", "MEAN_MOTION": 14.0724162, "ECCENTRICITY": 0.0103206, "INCLINATION": 100.9244, "RA_OF_ASC_NODE": 218.7357, "ARG_OF_PERICENTER": 95.633, "MEAN_ANOMALY": 265.6612, "EPHEMERIS_TYPE": 0, "CLASSIFICATION_TYPE": "U", "NORAD_CAT_ID": 36229, "ELEMENT_SET_NO": 999, "REV_AT_EPOCH": 63398, "BSTAR": 0.0014621, "MEAN_MOTION_DOT": 2.515e-05, "MEAN_MOTION_DDOT": 0}, "tle": {"line1": "1 36229U 99025DVE 25356.87085286  .00002515  00000+0  14621-2 0  9990", "line2": "2 36229 100.9244 218.7357 0103206  95.6330 265.6612 14.07241620633989"}}, "geometry": {"type": "Point", "coordinates": [-157.25306187456854, 57.3555020280598]}}]}